OBJECT_NAME,OBJECT_ID,EPOCH,MEAN_MOTION,ECCENTRICITY,INCLINATION,RA_OF_ASC_NODE,ARG_OF_PERICENTER,MEAN_ANOMALY,EPHEMERIS_TYPE,CLASSIFICATION_TYPE,NORAD_CAT_ID,ELEMENT_SET_NO,REV_AT_EPOCH,BSTAR,MEAN_MOTION_DOT,MEAN_MOTION_DDOT
BEIDOU-2 IGSO-5 (C10),2011-073A,2026-07-02T17:30:18.330912,1.00270596,.01145273,47.6496,271.3544,222.0502,141.5350,0,U,37948,999,5329,0,-.128E-5,0
LUCH 5A (SDCM/PRN 140),2011-074B,2026-07-22T10:44:56.095008,1.00274767,.00028884,8.8408,73.2870,61.8063,133.3744,0,U,37951,999,5340,0,-.52E-6,0
BEIDOU-2 G5 (C05),2012-008A,2026-07-23T02:59:59.174880,1.00273506,.00070224,3.6613,69.4690,271.3889,63.6669,0,U,38091,999,5272,0,.58E-6,0
BEIDOU-2 M3 (C11),2012-018A,2026-07-23T03:57:27.950112,1.86229793,.00211216,55.7243,303.6615,272.1845,87.6047,0,U,38250,999,9661,0,-.99E-6,0
BEIDOU-2 M4 (C12),2012-018B,2026-07-20T22:47:10.972320,1.86229353,.00122504,55.6263,302.9476,272.0854,87.8062,0,U,38251,999,9657,0,-.102E-5,0
SES-5 (EGNOS/PRN 136),2012-036A,2026-07-23T06:09:50.611392,1.00270024,.00022093,0.0432,323.6831,152.8190,281.9184,0,U,38652,999,4481,0,.38E-6,0
BEIDOU-2 M6 (C14),2012-050B,2026-07-20T02:55:43.188960,1.86230986,.00127267,56.5733,61.8055,2.2324,357.8361,0,U,38775,999,9392,0,-.77E-6,0
GSAT-10 (GAGAN/PRN 128),2012-051B,2026-07-23T03:06:51.016896,1.00272426,.00076584,0.0717,262.7463,193.6766,334.1689,0,U,38779,999,5045,0,-.16E-5,0
GPS BIIF-3  (PRN 24),2012-053A,2026-07-22T17:08:42.227232,2.00568140,.01825172,53.5903,142.1437,66.3642,295.5179,0,U,38833,999,10015,0,-.3E-7,0
GSAT0103 (GALILEO-FM3),2012-055A,2026-07-19T03:38:04.424640,1.70473478,.0003622,55.8248,100.6680,312.6356,47.3724,0,U,38857,999,8555,0,-.35E-6,0
BEIDOU-2 G6 (C02),2012-059A,2026-07-23T02:28:38.665920,1.00273187,.00089572,4.5102,73.1328,329.7065,19.1963,0,U,38953,999,5026,0,-.176E-5,0
LUCH 5B (SDCM/PRN 125),2012-061A,2026-07-22T22:08:58.966944,1.00270871,.00038492,10.5592,49.5225,142.0155,65.0607,0,U,38977,999,4996,0,-.142E-5,0
COSMOS 2485 (747),2013-019A,2026-07-23T01:01:54.411168,2.13103192,.00225529,65.4401,72.4015,230.4230,129.4454,0,U,39155,999,10304,0,-.47E-6,0
GPS BIIF-4  (PRN 27),2013-023A,2026-07-22T02:00:32.597568,2.00563446,.01414045,54.4778,267.5502,51.1079,310.2126,0,U,39166,999,9658,0,-.25E-6,0
IRNSS-1A,2013-034A,2026-07-22T16:42:46.468224,1.00271851,.00187917,35.7966,63.3613,179.4799,3.3059,0,U,39199,999,4772,0,.51E-6,0
GPS BIIF-5  (PRN 30),2014-008A,2026-07-23T01:59:08.716992,2.00562163,.0084019,53.6583,147.8555,231.5746,127.6451,0,U,39533,999,9040,0,.4E-7,0
ASTRA 5B (EGNOS/PRN 123),2014-011B,2026-07-23T06:15:12.595680,1.00272727,.00022383,0.0613,313.6807,175.8043,288.7540,0,U,39617,999,4502,0,.141E-5,0
COSMOS 2492 (754),2014-012A,2026-07-22T12:46:55.998912,2.13103176,.00103071,65.2744,312.7343,316.3437,43.5947,0,U,39620,999,9599,0,-.9E-6,0
IRNSS-1B,2014-017A,2026-07-22T16:42:46.468224,1.00267424,.00213406,28.8725,239.7926,191.4522,174.9685,0,U,39635,999,4515,0,.145E-5,0
LUCH 5V (SDCM/PRN 141),2014-023A,2026-07-23T03:10:13.193760,1.00271611,.00023707,5.2196,69.3698,78.4339,295.3646,0,U,39727,999,4472,0,-.269E-5,0
GPS BIIF-6  (PRN 06),2014-026A,2026-07-22T20:39:03.010464,2.00558517,.00381938,56.4788,330.1290,325.5577,34.2000,0,U,39741,999,8925,0,-.112E-5,0
COSMOS 2500 (755),2014-032A,2026-07-23T04:06:27.448992,2.13105924,.00085173,65.2090,312.4566,191.8913,168.1090,0,U,40001,999,9422,0,-.89E-6,0
GPS BIIF-7  (PRN 09),2014-045A,2026-07-21T22:54:59.869440,2.00560793,.00347204,55.3757,87.0795,118.5048,241.8949,0,U,40105,999,8677,0,-.67E-6,0
GSAT0201 (GALILEO 5),2014-050A,2026-07-21T21:53:14.723808,1.85519659,.16792967,48.8375,272.0101,180.7600,179.0021,0,U,40128,999,7896,0,-.55E-6,0
GSAT0202 (GALILEO 6),2014-050B,2026-07-22T16:57:11.028096,1.85520638,.16807347,48.8542,271.0635,181.4997,177.9799,0,U,40129,999,8114,0,-.45E-6,0
IRNSS-1C,2014-061A,2026-07-23T03:42:38.687616,1.00271046,.00218769,6.6060,88.2456,6.3819,344.9692,0,U,40269,999,4304,0,-.164E-5,0
GPS BIIF-8  (PRN 03),2014-068A,2026-07-22T07:43:42.296448,2.00553794,.00674505,57.0119,29.6026,72.5356,288.2395,0,U,40294,999,8591,0,-.8E-6,0
COSMOS 2501 (702K),2014-075A,2026-07-21T13:21:28.563840,2.13101380,.00225959,63.6189,189.1825,212.4587,147.4043,0,U,40315,999,9058,0,.9E-6,0
GPS BIIF-9  (PRN 26),2015-013A,2026-07-20T23:12:44.735616,2.00574219,.01103224,53.1254,202.7533,40.4930,320.3352,0,U,40534,999,8250,0,.74E-6,0
GSAT0203 (GALILEO 7),2015-017A,2026-07-21T05:37:49.022688,1.70476352,.00028415,56.7744,340.6686,253.2571,106.7061,0,U,40544,999,6978,0,-.108E-5,0
GSAT0204 (GALILEO 8),2015-017B,2026-07-22T15:55:39.294336,1.70475930,.00030376,56.7814,340.6485,234.2314,125.7351,0,U,40545,999,3285,0,-.107E-5,0
